[{"OBJECT_NAME":"DUPLEX","OBJECT_ID":"1998-067XS","EPOCH":"2026-03-26T00:28:36.677280","MEAN_MOTION":15.57222315,"ECCENTRICITY":0.00032159,"INCLINATION":51.63,"RA_OF_ASC_NODE":347.7072,"ARG_OF_PERICENTER":183.4701,"MEAN_ANOMALY":176.6269,"EPHEMERIS_TYPE":0,"CLASSIFICATION_TYPE":"U","NORAD_CAT_ID":66906,"ELEMENT_SET_NO":999,"REV_AT_EPOCH":1767,"BSTAR":0.00035962218,"MEAN_MOTION_DOT":0.00026281,"MEAN_MOTION_DDOT":0},{"OBJECT_NAME":"ISS OBJECT XT","OBJECT_ID":"1998-067XT","EPOCH":"2026-03-26T02:38:54.121632","MEAN_MOTION":15.75161694,"ECCENTRICITY":0.00056346,"INCLINATION":51.6253,"RA_OF_ASC_NODE":341.5278,"ARG_OF_PERICENTER":185.9249,"MEAN_ANOMALY":174.1684,"EPHEMERIS_TYPE":0,"CLASSIFICATION_TYPE":"U","NORAD_CAT_ID":66907,"ELEMENT_SET_NO":999,"REV_AT_EPOCH":1776,"BSTAR":0.0012093711,"MEAN_MOTION_DOT":0.00188746,"MEAN_MOTION_DDOT":0},{"OBJECT_NAME":"ISS OBJECT XU","OBJECT_ID":"1998-067XU","EPOCH":"2026-03-26T02:34:02.015328","MEAN_MOTION":15.75375865,"ECCENTRICITY":0.00057921,"INCLINATION":51.6242,"RA_OF_ASC_NODE":341.5012,"ARG_OF_PERICENTER":185.7091,"MEAN_ANOMALY":174.3843,"EPHEMERIS_TYPE":0,"CLASSIFICATION_TYPE":"U","NORAD_CAT_ID":66908,"ELEMENT_SET_NO":999,"REV_AT_EPOCH":1776,"BSTAR":0.0012505772,"MEAN_MOTION_DOT":0.00197242,"MEAN_MOTION_DDOT":0},{"OBJECT_NAME":"SILVERSAT","OBJECT_ID":"1998-067XV","EPOCH":"2026-03-26T01:39:57.278016","MEAN_MOTION":15.80138223,"ECCENTRICITY":0.00065491,"INCLINATION":51.622,"RA_OF_ASC_NODE":340.49,"ARG_OF_PERICENTER":190.6465,"MEAN_ANOMALY":169.4399,"EPHEMERIS_TYPE":0,"CLASSIFICATION_TYPE":"U","NORAD_CAT_ID":66909,"ELEMENT_SET_NO":999,"REV_AT_EPOCH":1777,"BSTAR":0.0013650058,"MEAN_MOTION_DOT":0.00268808,"MEAN_MOTION_DDOT":0},{"OBJECT_NAME":"ISS OBJECT XW","OBJECT_ID":"1998-067XW","EPOCH":"2026-03-26T02:45:45.008928","MEAN_MOTION":15.73866455,"ECCENTRICITY":0.00060726,"INCLINATION":51.624,"RA_OF_ASC_NODE":341.5525,"ARG_OF_PERICENTER":184.459,"MEAN_ANOMALY":175.6356,"EPHEMERIS_TYPE":0,"CLASSIFICATION_TYPE":"U","NORAD_CAT_ID":66910,"ELEMENT_SET_NO":999,"REV_AT_EPOCH":1776,"BSTAR":0.0011683659,"MEAN_MOTION_DOT":0.00172036,"MEAN_MOTION_DDOT":0},{"OBJECT_NAME":"ISS OBJECT XX","OBJECT_ID":"1998-067XX","EPOCH":"2026-03-26T02:02:12.634944","MEAN_MOTION":15.8600442,"ECCENTRICITY":0.00081404,"INCLINATION":51.6196,"RA_OF_ASC_NODE":339.0611,"ARG_OF_PERICENTER":194.5249,"MEAN_ANOMALY":165.5522,"EPHEMERIS_TYPE":0,"CLASSIFICATION_TYPE":"U","NORAD_CAT_ID":66911,"ELEMENT_SET_NO":999,"REV_AT_EPOCH":1778,"BSTAR":0.0014913528,"MEAN_MOTION_DOT":0.0039317,"MEAN_MOTION_DDOT":0},{"OBJECT_NAME":"ISS OBJECT XY","OBJECT_ID":"1998-067XY","EPOCH":"2026-03-26T02:48:10.944576","MEAN_MOTION":15.66993563,"ECCENTRICITY":0.00041511,"INCLINATION":51.6274,"RA_OF_ASC_NODE":343.8421,"ARG_OF_PERICENTER":183.5421,"MEAN_ANOMALY":176.5546,"EPHEMERIS_TYPE":0,"CLASSIFICATION_TYPE":"U","NORAD_CAT_ID":66912,"ELEMENT_SET_NO":999,"REV_AT_EPOCH":1772,"BSTAR":0.00090497026,"MEAN_MOTION_DOT":0.00098883,"MEAN_MOTION_DDOT":0},{"OBJECT_NAME":"KNACKSAT-2","OBJECT_ID":"1998-067XZ","EPOCH":"2026-03-26T00:18:49.860576","MEAN_MOTION":15.5316358,"ECCENTRICITY":0.00099022,"INCLINATION":51.6321,"RA_OF_ASC_NODE":350.6612,"ARG_OF_PERICENTER":244.8689,"MEAN_ANOMALY":115.1274,"EPHEMERIS_TYPE":0,"CLASSIFICATION_TYPE":"U","NORAD_CAT_ID":67683,"ELEMENT_SET_NO":999,"REV_AT_EPOCH":732,"BSTAR":0.0005727971,"MEAN_MOTION_DOT":0.0003637,"MEAN_MOTION_DDOT":0},{"OBJECT_NAME":"CORAL","OBJECT_ID":"1998-067YA","EPOCH":"2026-03-26T00:24:02.134368","MEAN_MOTION":15.57054021,"ECCENTRICITY":0.00124562,"INCLINATION":51.6305,"RA_OF_ASC_NODE":349.9356,"ARG_OF_PERICENTER":234.065,"MEAN_ANOMALY":125.9187,"EPHEMERIS_TYPE":0,"CLASSIFICATION_TYPE":"U","NORAD_CAT_ID":67684,"ELEMENT_SET_NO":999,"REV_AT_EPOCH":733,"BSTAR":0.001052792,"MEAN_MOTION_DOT":0.00078154,"MEAN_MOTION_DDOT":0},{"OBJECT_NAME":"GXIBA-1","OBJECT_ID":"1998-067YB","EPOCH":"2026-03-26T03:11:03.496704","MEAN_MOTION":15.53694243,"ECCENTRICITY":0.0011842,"INCLINATION":51.632,"RA_OF_ASC_NODE":349.9594,"ARG_OF_PERICENTER":242.3548,"MEAN_ANOMALY":117.6241,"EPHEMERIS_TYPE":0,"CLASSIFICATION_TYPE":"U","NORAD_CAT_ID":67685,"ELEMENT_SET_NO":999,"REV_AT_EPOCH":734,"BSTAR":0.0006748277,"MEAN_MOTION_DOT":0.00043855,"MEAN_MOTION_DDOT":0},{"OBJECT_NAME":"UITMSAT-2","OBJECT_ID":"1998-067YC","EPOCH":"2026-03-25T22:14:36.271680","MEAN_MOTION":15.54556307,"ECCENTRICITY":0.0008859,"INCLINATION":51.6335,"RA_OF_ASC_NODE":350.838,"ARG_OF_PERICENTER":213.2499,"MEAN_ANOMALY":146.7936,"EPHEMERIS_TYPE":0,"CLASSIFICATION_TYPE":"U","NORAD_CAT_ID":67686,"ELEMENT_SET_NO":999,"REV_AT_EPOCH":731,"BSTAR":0.00067773,"MEAN_MOTION_DOT":0.00045416,"MEAN_MOTION_DDOT":0},{"OBJECT_NAME":"HMU-SAT2","OBJECT_ID":"1998-067YD","EPOCH":"2026-03-26T00:12:15.223392","MEAN_MOTION":15.53428839,"ECCENTRICITY":0.00084745,"INCLINATION":51.6326,"RA_OF_ASC_NODE":350.6331,"ARG_OF_PERICENTER":215.7508,"MEAN_ANOMALY":144.2916,"EPHEMERIS_TYPE":0,"CLASSIFICATION_TYPE":"U","NORAD_CAT_ID":67687,"ELEMENT_SET_NO":999,"REV_AT_EPOCH":724,"BSTAR":0.00063411311,"MEAN_MOTION_DOT":0.00040708,"MEAN_MOTION_DDOT":0},{"OBJECT_NAME":"LEOPARD","OBJECT_ID":"1998-067YE","EPOCH":"2026-03-25T22:23:05.135712","MEAN_MOTION":15.5415433,"ECCENTRICITY":0.0008632,"INCLINATION":51.633,"RA_OF_ASC_NODE":350.8765,"ARG_OF_PERICENTER":213.0025,"MEAN_ANOMALY":147.0428,"EPHEMERIS_TYPE":0,"CLASSIFICATION_TYPE":"U","NORAD_CAT_ID":67688,"ELEMENT_SET_NO":999,"REV_AT_EPOCH":723,"BSTAR":0.00063246,"MEAN_MOTION_DOT":0.00041704,"MEAN_MOTION_DDOT":0},{"OBJECT_NAME":"CREW DRAGON 12","OBJECT_ID":"2026-031A","EPOCH":"2026-03-26T03:56:25.626336","MEAN_MOTION":15.48550942,"ECCENTRICITY":0.00062355,"INCLINATION":51.6341,"RA_OF_ASC_NODE":350.9181,"ARG_OF_PERICENTER":233.8862,"MEAN_ANOMALY":126.1549,"EPHEMERIS_TYPE":0,"CLASSIFICATION_TYPE":"U","NORAD_CAT_ID":67796,"ELEMENT_SET_NO":999,"REV_AT_EPOCH":55882,"BSTAR":0.00025199987,"MEAN_MOTION_DOT":0.00013248,"MEAN_MOTION_DDOT":0},{"OBJECT_NAME":"PROGRESS-MS 33","OBJECT_ID":"2026-058A","EPOCH":"2026-03-26T03:56:25.626336","MEAN_MOTION":15.48550942,"ECCENTRICITY":0.00062355,"INCLINATION":51.6341,"RA_OF_ASC_NODE":350.9181,"ARG_OF_PERICENTER":233.8862,"MEAN_ANOMALY":126.1549,"EPHEMERIS_TYPE":0,"CLASSIFICATION_TYPE":"U","NORAD_CAT_ID":68319,"ELEMENT_SET_NO":999,"REV_AT_EPOCH":33,"BSTAR":0.00025199987,"MEAN_MOTION_DOT":0.00013248,"MEAN_MOTION_DDOT":0}]
