DUPLEX                  
1 66906U 98067XS  26085.01986895  .00026281  00000+0  35962-3 0  9990
2 66906  51.6300 347.7072 0003215 183.4701 176.6269 15.57222315 17670
ISS OBJECT XT           
1 66907U 98067XT  26085.11034863  .00188746  00000+0  12094-2 0  9996
2 66907  51.6253 341.5278 0005634 185.9249 174.1684 15.75161694 17765
ISS OBJECT XU           
1 66908U 98067XU  26085.10696777  .00197242  00000+0  12506-2 0  9993
2 66908  51.6242 341.5012 0005792 185.7091 174.3843 15.75375865 17764
SILVERSAT               
1 66909U 98067XV  26085.06941294  .00268808  00000+0  13650-2 0  9994
2 66909  51.6220 340.4900 0006549 190.6465 169.4399 15.80138223 17779
ISS OBJECT XW           
1 66910U 98067XW  26085.11510427  .00172036  00000+0  11684-2 0  9994
2 66910  51.6240 341.5525 0006072 184.4590 175.6356 15.73866455 17767
ISS OBJECT XX           
1 66911U 98067XX  26085.08486846  .00393170  00000+0  14914-2 0  9991
2 66911  51.6196 339.0611 0008140 194.5249 165.5522 15.86004420 17782
ISS OBJECT XY           
1 66912U 98067XY  26085.11679334  .00098883  00000+0  90497-3 0  9996
2 66912  51.6274 343.8421 0004151 183.5421 176.5546 15.66993563 17725
KNACKSAT-2              
1 67683U 98067XZ  26085.01307709  .00036370  00000+0  57280-3 0  9991
2 67683  51.6321 350.6612 0009902 244.8689 115.1274 15.53163580  7324
CORAL                   
1 67684U 98067YA  26085.01669137  .00078154  00000+0  10528-2 0  9997
2 67684  51.6305 349.9356 0012456 234.0650 125.9187 15.57054021  7336
GXIBA-1                 
1 67685U 98067YB  26085.13267936  .00043855  00000+0  67483-3 0  9995
2 67685  51.6320 349.9594 0011842 242.3548 117.6241 15.53694243  7346
UITMSAT-2               
1 67686U 98067YC  26084.92680870  .00045416  00000+0  67773-3 0  9995
2 67686  51.6335 350.8380 0008859 213.2499 146.7936 15.54556307  7313
HMU-SAT2                
1 67687U 98067YD  26085.00850953  .00040708  00000+0  63411-3 0  9991
2 67687  51.6326 350.6331 0008474 215.7508 144.2916 15.53428839  7249
LEOPARD                 
1 67688U 98067YE  26084.93269833  .00041704  00000+0  63246-3 0  9997
2 67688  51.6330 350.8765 0008632 213.0025 147.0428 15.54154330  7230
CREW DRAGON 12          
1 67796U 26031A   26085.16418549  .00013248  00000+0  25200-3 0  9995
2 67796  51.6341 350.9181 0006235 233.8862 126.1549 15.48550942558821
PROGRESS-MS 33          
1 68319U 26058A   26085.16418549  .00013248  00000+0  25200-3 0  9996
2 68319  51.6341 350.9181 0006235 233.8862 126.1549 15.48550942   331
